NORAD_CAT_ID,OBJECT_NAME,OBJECT_TYPE,EPOCH,MEAN_MOTION,ECCENTRICITY,INCLINATION,RA_OF_ASC_NODE,ARG_OF_PERICENTER,MEAN_ANOMALY,BSTAR,MEAN_MOTION_DOT,MEAN_MOTION_DDOT,TLE_LINE0,TLE_LINE1,TLE_LINE2,SEMIMAJOR_AXIS,PERIOD,APOGEE,PERIGEE,DECAYED
55918.0,STARLINK-5867,PAYLOAD,2024-03-24 21:12:39,14.98330997,0.0003165,69.9976,306.8358,271.2234,88.8563,4.5512e-05,4.5e-06,0.0,0 STARLINK-5867,1 55918U 23037E   24084.88379180  .00000450  00000-0  45512-4 0  9995,2 55918  69.9976 306.8358 0003165 271.2234  88.8563 14.98330997 56759,6950.19,96.107,574.255,569.855,0.0
55918.0,STARLINK-5867,PAYLOAD,2024-03-24 22:48:47,14.98330606,0.000309,69.9978,306.6674,271.1963,88.8842,7.3615e-05,7.85e-06,0.0,0 STARLINK-5867,1 55918U 23037E   24084.95055190  .00000785  00000-0  73615-4 0  9991,2 55918  69.9978 306.6674 0003090 271.1963  88.8842 14.98330606 56426,6950.191,96.107,574.204,569.908,0.0
55918.0,STARLINK-5867,PAYLOAD,2024-03-25 08:25:35,14.98341654,0.0003037,69.9984,305.6591,268.7985,91.2826,-5.7944e-05,-7.85e-06,0.0,0 STARLINK-5867,1 55918U 23037E   24085.35110473 -.00000785  00000-0 -57944-4 0  9991,2 55918  69.9984 305.6591 0003037 268.7985  91.2826 14.98341654 56826,6950.157,96.106,574.133,569.911,0.0
55918.0,STARLINK-5867,PAYLOAD,2024-03-25 22:50:48,14.9834496,0.0002966,69.9996,304.1443,269.3856,90.6963,0.00050302,5.916e-05,0.0,0 STARLINK-5867,1 55918U 23037E   24085.95194543  .00005916  00000-0  50302-3 0  9996,2 55918  69.9996 304.1443 0002966 269.3856  90.6963 14.98344960 56573,6950.147,96.106,574.073,569.95,0.0
55918.0,STARLINK-5867,PAYLOAD,2024-03-26 14:52:08,14.98334473,0.0002691,70.0023,302.4614,269.1138,90.9713,0.00014988,1.696e-05,0.0,0 STARLINK-5867,1 55918U 23037E   24086.61954797  .00001696  00000-0  14988-3 0  9996,2 55918  70.0023 302.4614 0002691 269.1138  90.9713 14.98334473 56679,6950.179,96.107,573.914,570.174,0.0
55918.0,STARLINK-5867,PAYLOAD,2024-03-26 21:16:41,14.98326979,0.0003162,69.9992,301.7875,272.834,87.2458,-9.1017e-05,-1.179e-05,0.0,0 STARLINK-5867,1 55918U 23037E   24086.88659024 -.00001179  00000-0 -91017-4 0  9997,2 55918  69.9992 301.7875 0003162 272.8340  87.2458 14.98326979 57052,6950.202,96.107,574.265,569.87,0.0
55918.0,STARLINK-5867,PAYLOAD,2024-03-26 22:52:49,14.98323801,0.0002782,70.0003,301.6211,265.4506,94.6335,-0.00019957,-2.473e-05,0.0,0 STARLINK-5867,1 55918U 23037E   24086.95335092 -.00002473  00000-0 -19957-3 0  9991,2 55918  70.0003 301.6211 0002782 265.4506  94.6335 14.98323801 56720,6950.212,96.107,574.011,570.144,0.0
55918.0,STARLINK-5867,PAYLOAD,2024-03-27 14:54:10,14.9833073,0.0003125,69.9986,299.935,272.5278,87.5523,-2.6885e-05,-4.14e-06,0.0,0 STARLINK-5867,1 55918U 23037E   24087.62095008 -.00000414  00000-0 -26885-4 0  9998,2 55918  69.9986 299.9350 0003125 272.5278  87.5523 14.98330730 56827,6950.191,96.107,574.228,569.884,0.0
55918.0,STARLINK-5867,PAYLOAD,2024-03-27 21:18:42,14.98335459,0.000321,69.9978,299.2617,275.2732,84.8061,7.2059e-05,7.67e-06,0.0,0 STARLINK-5867,1 55918U 23037E   24087.88798935  .00000767  00000-0  72059-4 0  9998,2 55918  69.9978 299.2617 0003210 275.2732  84.8061 14.98335459 57200,6950.176,96.107,574.272,569.81,0.0
55918.0,STARLINK-5867,PAYLOAD,2024-03-28 06:55:29,14.98349585,0.0002988,69.9987,298.25,276.5994,83.4825,-0.00013733,-1.732e-05,0.0,0 STARLINK-5867,1 55918U 23037E   24088.28854044 -.00001732  00000-0 -13733-3 0  9995,2 55918  69.9987 298.2500 0002988 276.5994  83.4825 14.98349585 57269,6950.132,96.106,574.074,569.921,0.0
55918.0,STARLINK-5867,PAYLOAD,2024-03-28 21:20:43,14.98328488,0.0002813,69.9985,296.7365,270.3571,89.7265,0.00026958,3.125e-05,0.0,0 STARLINK-5867,1 55918U 23037E   24088.88938981  .00003125  00000-0  26958-3 0  9993,2 55918  69.9985 296.7365 0002813 270.3571  89.7265 14.98328488 57355,6950.198,96.107,574.018,570.107,0.0
55918.0,STARLINK-5867,PAYLOAD,2024-03-28 22:56:51,14.98329613,0.0002646,69.9987,296.5682,266.2895,93.7961,0.00027781,3.223e-05,0.0,0 STARLINK-5867,1 55918U 23037E   24088.95614886  .00003223  00000-0  27781-3 0  9990,2 55918  69.9987 296.5682 0002646 266.2895  93.7961 14.98329613 57027,6950.194,96.107,573.898,570.22,0.0
55918.0,STARLINK-5867,PAYLOAD,2024-03-29 06:57:30,14.9836861,0.0002628,70.0011,295.7246,283.6711,76.4156,-0.00070035,-8.448e-05,0.0,0 STARLINK-5867,1 55918U 23037E   24089.28993424 -.00008448  00000-0 -70035-3 0  9991,2 55918  70.0011 295.7246 0002628 283.6711  76.4156 14.98368610 57412,6950.073,96.105,573.765,570.112,0.0
55918.0,STARLINK-5867,PAYLOAD,2024-03-29 19:46:36,14.98330942,0.0003073,69.9994,294.3797,267.2884,92.7923,0.00017752,2.026e-05,0.0,0 STARLINK-5867,1 55918U 23037E   24089.82402939  .00002026  00000-0  17752-3 0  9998,2 55918  69.9994 294.3797 0003073 267.2884  92.7923 14.98330942 57497,6950.19,96.107,574.191,569.919,0.0
55918.0,STARLINK-5867,PAYLOAD,2024-03-29 22:58:52,14.98333573,0.0002958,69.9985,294.0434,265.4671,94.615,0.00010845,1.201e-05,0.0,0 STARLINK-5867,1 55918U 23037E   24089.95754829  .00001201  00000-0  10845-3 0  9990,2 55918  69.9985 294.0434 0002958 265.4671  94.6150 14.98333573 57178,6950.182,96.107,574.103,569.991,0.0
55918.0,STARLINK-5867,PAYLOAD,2024-03-30 00:34:59,14.98339487,0.0003187,69.9976,293.8732,262.9638,97.1159,0.00018588,2.126e-05,0.0,0 STARLINK-5867,1 55918U 23037E   24090.02430224  .00002126  00000-0  18588-3 0  9999,2 55918  69.9976 293.8732 0003187 262.9638  97.1159 14.98339487 57522,6950.164,96.106,574.244,569.814,0.0
55918.0,STARLINK-5867,PAYLOAD,2024-03-30 06:59:32,14.98340071,0.0002754,70.0007,293.199,267.195,92.8893,-0.00017143,-2.138e-05,0.0,0 STARLINK-5867,1 55918U 23037E   24090.29134692 -.00002138  00000-0 -17143-3 0  9999,2 55918  70.0007 293.1990 0002754 267.1950  92.8893 14.98340071 57227,6950.162,96.106,573.941,570.113,0.0
55918.0,STARLINK-5867,PAYLOAD,2024-03-30 21:24:45,14.98332436,0.0002886,69.9998,291.6862,266.6543,93.4286,6.8666e-05,7.26e-06,0.0,0 STARLINK-5867,1 55918U 23037E   24090.89218893  .00000726  00000-0  68666-4 0  9997,2 55918  69.9998 291.6862 0002886 266.6543  93.4286 14.98332436 57658,6950.185,96.107,574.056,570.045,0.0
55918.0,STARLINK-5867,PAYLOAD,2024-03-30 23:00:53,14.98332395,0.0002912,69.9995,291.5179,266.8538,93.2287,5.6018e-05,5.75e-06,0.0,0 STARLINK-5867,1 55918U 23037E   24090.95894907  .00000575  00000-0  56018-4 0  9990,2 55918  69.9995 291.5179 0002912 266.8538  93.2287 14.98332395 57328,6950.185,96.107,574.074,570.027,0.0
55918.0,STARLINK-5867,PAYLOAD,2024-03-31 13:26:05,14.98333824,0.0003139,69.9986,290.0034,269.2646,90.8154,0.00013741,1.547e-05,0.0,0 STARLINK-5867,1 55918U 23037E   24091.55978458  .00001547  00000-0  13741-3 0  9996,2 55918  69.9986 290.0034 0003139 269.2646  90.8154 14.98333824 57415,6950.181,96.107,574.228,569.864,0.0
55918.0,STARLINK-5867,PAYLOAD,2024-03-31 21:26:45,14.98336925,0.0003155,69.9981,289.1619,269.8922,90.1876,0.00018081,2.065e-05,0.0,0 STARLINK-5867,1 55918U 23037E   24091.89358250  .00002065  00000-0  18081-3 0  9993,2 55918  69.9981 289.1619 0003155 269.8922  90.1876 14.98336925 57463,6950.171,96.107,574.229,569.844,0.0
55918.0,STARLINK-5867,PAYLOAD,2024-03-31 23:02:53,14.98336582,0.0003125,69.9982,288.9935,270.0208,90.0593,0.00022241,2.562e-05,0.0,0 STARLINK-5867,1 55918U 23037E   24091.96034207  .00002562  00000-0  22241-3 0  9999,2 55918  69.9982 288.9935 0003125 270.0208  90.0593 14.98336582 57813,6950.173,96.107,574.209,569.866,0.0
55918.0,STARLINK-5867,PAYLOAD,2024-04-01 11:51:58,14.98327191,0.0003098,69.998,287.6469,268.556,91.5244,0.00013893,1.565e-05,0.0,0 STARLINK-5867,1 55918U 23037E   24092.49442944  .00001565  00000-0  13893-3 0  9994,2 55918  69.9980 287.6469 0003098 268.5560  91.5244 14.98327191 57894,6950.202,96.107,574.22,569.913,0.0
55918.0,STARLINK-5867,PAYLOAD,2024-04-02 11:53:59,14.98335159,0.0003023,69.9981,285.1216,269.1826,90.8986,5.5678e-05,5.71e-06,0.0,0 STARLINK-5867,1 55918U 23037E   24093.49582510  .00000571  00000-0  55678-4 0  9993,2 55918  69.9981 285.1216 0003023 269.1826  90.8986 14.98335159 58044,6950.177,96.107,574.143,569.941,0.0
55918.0,STARLINK-5867,PAYLOAD,2024-04-02 13:30:07,14.98335367,0.0003025,69.9981,284.9533,269.1371,90.9442,5.3182e-05,5.42e-06,0.0,0 STARLINK-5867,1 55918U 23037E   24093.56258465  .00000542  00000-0  53182-4 0  9996,2 55918  69.9981 284.9533 0003025 269.1371  90.9442 14.98335367 57712,6950.176,96.107,574.144,569.939,0.0
55918.0,STARLINK-5867,PAYLOAD,2024-04-02 19:54:39,14.98335952,0.0002969,69.9982,284.2803,268.1796,91.9023,5.7783e-05,5.97e-06,0.0,0 STARLINK-5867,1 55918U 23037E   24093.82962304  .00000597  00000-0  57783-4 0  9990,2 55918  69.9982 284.2803 0002969 268.1796  91.9023 14.98335952 57752,6950.174,96.107,574.103,569.976,0.0
55918.0,STARLINK-5867,PAYLOAD,2024-04-03 11:56:00,14.98331399,0.0003002,69.998,282.5967,268.5743,91.5072,0.00010237,1.129e-05,0.0,0 STARLINK-5867,1 55918U 23037E   24094.49722335  .00001129  00000-0  10237-3 0  9996,2 55918  69.9980 282.5967 0003002 268.5743  91.5072 14.98331399 58197,6950.189,96.107,574.14,569.967,0.0
55918.0,STARLINK-5867,PAYLOAD,2024-04-03 21:32:48,14.9833228,0.0003006,69.998,281.5865,269.2554,90.826,0.00010133,1.116e-05,0.0,0 STARLINK-5867,1 55918U 23037E   24094.89778278  .00001116  00000-0  10133-3 0  9998,2 55918  69.9980 281.5865 0003006 269.2554  90.8260 14.98332280 57915,6950.186,96.107,574.14,569.962,0.0
55918.0,STARLINK-5867,PAYLOAD,2024-04-04 13:34:09,14.98329291,0.0002914,69.9981,279.9028,267.958,92.1245,9.1209e-06,1.6e-07,0.0,0 STARLINK-5867,1 55918U 23037E   24095.56538618  .00000016  00000-0  91209-5 0  9998,2 55918  69.9981 279.9028 0002914 267.9580  92.1245 14.98329291 58354,6950.195,96.107,574.085,570.035,0.0
55918.0,STARLINK-5867,PAYLOAD,2024-04-04 21:34:49,14.98327675,0.0002942,69.9982,279.0611,268.3998,91.6824,-1.5935e-05,-2.83e-06,0.0,0 STARLINK-5867,1 55918U 23037E   24095.89918784 -.00000283  00000-0 -15935-4 0  9999,2 55918  69.9982 279.0611 0002942 268.3998  91.6824 14.98327675 58062,6950.2,96.107,574.11,570.02,0.0
